OPS 6582 (TRANSIT 5B-5) 
1 00965U 64083D   21195.58240458  .00000006  00000-0 -52856-5 0  9993
2 00965  90.0189 194.4905 0042324 134.6578 343.0963 13.56757784799703
OSCAR 7 (AO-7)          
1 07530U 74089B   21195.55397538 -.00000043  00000-0  18364-4 0  9990
2 07530 101.8551 170.0297 0012121 332.2977 139.4675 12.53649381135123
UOSAT 2 (UO-11)         
1 14781U 84021B   21195.44519137  .00000089  00000-0  16958-4 0  9998
2 14781  97.5927 193.9576 0008409   3.7832 356.3444 14.83301887989936
NOAA 9                  
1 15427U 84123A   21195.45855267  .00000002  00000-0  23896-4 0  9991
2 15427  98.9952 158.4888 0015709  46.7952  62.5982 14.16137383888777
LUSAT (LO-19)           
1 20442U 90005G   21195.43922293 -.00000008  00000-0  13739-4 0  9994
2 20442  98.7428 151.1537 0012928  82.4194 277.8458 14.32991193644697
ITAMSAT (IO-26)         
1 22826U 93061D   21194.99879006 -.00000016  00000-0  11947-4 0  9998
2 22826  98.9103 213.1706 0008069 309.5993  50.4476 14.30458599450028
RADIO ROSTO (RS-15)     
1 23439U 94085A   21195.57613725 -.00000037  00000-0  15882-3 0  9999
2 23439  64.8152 332.0938 0161681 330.5486  28.6403 11.27570105 93395
JAS-2 (FO-29)           
1 24278U 96046B   21195.43960536 -.00000037  00000-0 -41065-5 0  9995
2 24278  98.5658 259.8373 0351314  79.8034 284.2526 13.53105000229898
NOAA 15                 
1 25338U 98030A   21195.37959596  .00000070  00000-0  47895-4 0  9996
2 25338  98.6800 223.6612 0010053 196.0839 164.0023 14.26044884204835
TECHSAT 1B (GO-32)      
1 25397U 98043D   21195.46317282 -.00000015  00000-0  13106-4 0  9993
2 25397  98.7720 140.9432 0001833  43.2659 316.8663 14.23711469195330
ISS (ZARYA)             
1 25544U 98067A   21195.53225064  .00001295  00000-0  31859-4 0  9992
2 25544  51.6422 207.5031 0001965 161.3238 336.1898 15.48797358292834
ORSTED                  
1 25635U 99008B   21195.38411350  .00000007  00000-0  92534-5 0  9995
2 25635  96.4768 133.7794 0138481 179.1761 180.9692 14.48301003181340
PHASE 3D (AO-40)        
1 26609U 00072B   21194.39141369 -.00000096  00000-0  00000-0 0  9991
2 26609   9.1568 320.2988 7946029 272.0774   9.7795  1.25586922 94912
PCSAT (NO-44)           
1 26931U 01043C   21195.44287192 -.00000055  00000-0  10583-4 0  9996
2 26931  67.0493 210.7832 0006161 261.7331  98.3071 14.30624820 33051
SAUDISAT 1C (SO-50)     
1 27607U 02058C   21195.40663656 -.00000040  00000-0  14832-4 0  9998
2 27607  64.5548 255.9247 0043834  12.0730 348.1412 14.75764849998504
CUTE-1 (CO-55)          
1 27844U 03031E   21195.41941777  .00000028  00000-0  32375-4 0  9994
2 27844  98.6792 203.2217 0009992   8.3832 351.7511 14.22319707935813
CUBESAT XI-IV (CO-57)   
1 27848U 03031J   21195.27990202  .00000022  00000-0  29572-4 0  9998
2 27848  98.6847 203.6473 0010200  21.6055 338.5552 14.21895605935627
MOZHAYETS 4 (RS-22)     
1 27939U 03042A   21195.39202760  .00000043  00000-0  16442-4 0  9994
2 27939  98.1455 332.3034 0012648 189.2147 170.8804 14.66998864951470
INMARSAT 4-F1           
1 28628U 05009A   21195.43234041 -.00000258  00000-0  00000-0 0  9995
2 28628   3.3817  31.3490 0002733  83.5509 116.7484  1.00270968 59632
NOAA 18                 
1 28654U 05018A   21195.36136334  .00000068  00000-0  61075-4 0  9993
2 28654  98.9926 260.3312 0013956 202.1439 157.9131 14.12621786832246
CUBESAT XI-V            
1 28895U 05043F   21195.35596931  .00000115  00000-0  30859-4 0  9999
2 28895  98.0625 328.0118 0017974 123.5670 236.7252 14.63931749837944
METOP-A                 
1 29499U 06044A   21195.43973161 -.00000009  00000-0  15029-4 0  9990
2 29499  98.4698 233.6295 0001156 119.5118 357.7842 14.21504160763486
CARTOSAT-2 (IRS-P7)     
1 29710U 07001B   21195.39314453  .00003364  00000-0  10349-3 0  9993
2 29710  97.8745 279.0165 0171061 153.4666 207.5454 15.21314610784749
FALCONSAT-3             
1 30776U 07006E   21195.44618826  .00003125  00000-0  75055-4 0  9990
2 30776  35.4342 286.7185 0002188 169.3723 190.7051 15.41030015797278
CAPE-1                  
1 31130U 07012P   21195.39095986  .00000098  00000-0  31669-4 0  9991
2 31130  98.2343 134.1842 0094381 260.8352  98.2160 14.56700379755873
CARTOSAT-2A             
1 32783U 08021A   21194.79863793  .00000156  00000-0  28153-4 0  9998
2 32783  97.8705 253.4573 0012983 176.0981 184.0333 14.78697191712976
CUTE-1.7+APD II (CO-65) 
1 32785U 08021C   21195.41890081  .00000228  00000-0  30067-4 0  9997
2 32785  97.6123 173.2173 0011359 274.9832  85.0089 14.88749237716189
COMPASS-1               
1 32787U 08021E   21195.38341087  .00000758  00000-0  75839-4 0  9996
2 32787  97.5297 185.2192 0011803 191.6516 168.4433 14.94174899717558
AAUSAT-II               
1 32788U 08021F   21195.45146184  .00000679  00000-0  65943-4 0  9993
2 32788  97.5049 188.9775 0011837 171.3349 188.8079 14.95636733717897
DELFI-C3 (DO-64)        
1 32789U 08021G   21195.40253440  .00001193  00000-0  78945-4 0  9991
2 32789  97.3743 229.7292 0013087  55.5644 304.6820 15.09117018720897
SEEDS II (CO-66)        
1 32791U 08021J   21195.39998532  .00000156  00000-0  20980-4 0  9994
2 32791  97.5719 179.0843 0011781 232.5042 127.5107 14.91444881716797
YUBILEINY (RS-30)       
1 32953U 08025A   21194.94823435  .00000021  00000-0  80971-4 0  9994
2 32953  82.5036  34.4514 0018759 281.0643  78.8330 12.43102352596274
FENGYUN 3A              
1 32958U 08026A   21195.42813152 -.00000004  00000-0  18058-4 0  9998
2 32958  98.4515 167.8497 0007582 283.9079  76.1254 14.18661272680291
PRISM (HITOMI)          
1 33493U 09002B   21195.38652430  .00001203  00000-0  10799-3 0  9997
2 33493  98.1909 159.2294 0014335 190.2048 169.8884 14.97727306678351
STARS (KUKAI)           
1 33498U 09002G   21195.31730027  .00000162  00000-0  29151-4 0  9990
2 33498  98.2106  75.9567 0009473 259.5566 100.4577 14.79376037671437
KKS-1 (KISEKI)          
1 33499U 09002H   21195.45859751  .00000076  00000-0  18974-4 0  9997
2 33499  98.2653  66.0264 0008253 322.3204  37.7425 14.75674170670396
NOAA 19                 
1 33591U 09005A   21195.46882119  .00000056  00000-0  55519-4 0  9992
2 33591  99.1818 216.8419 0014821  59.2789 300.9840 14.12482198640471
SWISSCUBE               
1 35932U 09051B   21195.35250478  .00000098  00000-0  33141-4 0  9992
2 35932  98.6013  36.2161 0007867  14.7574 345.3851 14.56552335626873
BEESAT-1                
1 35933U 09051C   21195.11102536  .00000083  00000-0  29730-4 0  9991
2 35933  98.5975  37.7762 0006358  29.8524 330.3034 14.56607966626912
ITUPSAT1                
1 35935U 09051E   21194.99360111  .00000070  00000-0  27184-4 0  9990
2 35935  98.6079  37.7879 0008669  28.4909 331.6760 14.55739130626635
XIWANG-1 (HOPE-1)       
1 36122U 09072B   21194.82681171 -.00000042  00000-0  14341-5 0  9998
2 36122 100.1316 174.3999 0007974  45.1680 315.0079 13.16361278556369
CARTOSAT-2B             
1 36795U 10035A   21195.44407796 -.00023483  00000-0 -32083-2 0  9998
2 36795  97.9851 253.6513 0012293 253.5851 106.4746 14.78618744594110
TISAT 1                 
1 36799U 10035E   21195.21442661  .00000521  00000-0  57718-4 0  9997
2 36799  98.2055  27.1140 0013256 122.4633 237.7868 14.91778277597328
FENGYUN 3B              
1 37214U 10059A   21194.81669044  .00000004  00000-0  25367-4 0  9998
2 37214  99.0784 189.4165 0015966 237.9571 122.0051 14.15991646553067
JUGNU                   
1 37839U 11058B   21195.03144200  .00000301  00000-0  18634-4 0  9997
2 37839  19.9623  68.0059 0018864  25.6749 118.2331 14.12718399504339
SRMSAT                  
1 37841U 11058D   21195.24848448  .00000278  00000-0  73636-5 0  9995
2 37841  19.9713 139.1236 0011782 227.4371 283.0441 14.10698762503447
M-CUBED & EXP-1 PRIME   
1 37855U 11061F   21195.43117701  .00002343  00000-0  11876-3 0  9997
2 37855 101.7119 132.8190 0166398 350.5375   9.2714 15.07857084530247
HORYU-2                 
1 38340U 12025D   21195.19287986  .00000171  00000-0  32605-4 0  9995
2 38340  98.2316 263.0503 0010537 224.8289 135.2069 14.76065306482333
METOP-B                 
1 38771U 12049A   21195.34390146 -.00000001  00000-0  19809-4 0  9993
2 38771  98.7133 255.0789 0000415  28.4522  49.7618 14.21487090457702
SARAL                   
1 39086U 13009A   21195.35989394 -.00000024  00000-0  72541-5 0  9998
2 39086  98.5464  21.0032 0001521 126.6989 233.4335 14.32056044438098
AAUSAT 3                
1 39087U 13009B   21194.78698163  .00000114  00000-0  54064-4 0  9994
2 39087  98.4232  37.4838 0011762 192.7968 167.2916 14.35949425438978
STRAND-1                
1 39090U 13009E   21195.10852109  .00000017  00000-0  20912-4 0  9994
2 39090  98.4262  36.6793 0008774 191.9784 168.1195 14.35177053438869
BRITE-AUSTRIA           
1 39091U 13009F   21195.44151017 -.00000015  00000-0  96604-5 0  9993
2 39091  98.4266  36.1385 0010020 198.7976 161.2841 14.35193964438941
UNIBRITE                
1 39092U 13009G   21195.43283885  .00000003  00000-0  16109-4 0  9999
2 39092  98.4295  35.8396 0009025 192.7573 167.3385 14.35064524438907
SOMP                    
1 39134U 13015E   21195.30711852  .00001430  00000-0  69780-4 0  9997
2 39134  64.8625  85.1292 0011045 318.3675  41.6612 15.22733432455303
BEESAT-3                
1 39135U 13015F   21195.16611823  .00001127  00000-0  62226-4 0  9990
2 39135  64.8665 115.2187 0006316 342.2424  17.8481 15.19493000454677
BEESAT-2                
1 39136U 13015G   21195.24119136  .00000980  00000-0  56227-4 0  9990
2 39136  64.8744 121.4792 0023211 242.1864 117.6910 15.18839304454537
NEE-01 PEGASO           
1 39151U 13018B   21195.25921200  .00000148  00000-0  26344-4 0  9997
2 39151  97.9814 297.5606 0015534 271.1677  88.7755 14.80369203443639
CUBEBUG-1 (CAPITAN BETO)
1 39153U 13018D   21195.26618403  .00000169  00000-0  28749-4 0  9992
2 39153  97.9967 300.8938 0015404 265.9466  93.9985 14.80952839443691
